      2.10          N: GNSS NAV DATA                        RINEX VERSION / TYPE
fic2rin                                 02/06/2023 00:17:34 PGM / RUN BY / DATE
                                                            END OF HEADER
8  23  2  5  1 59 44.0 -.106950756162D-03 -.181898940355D-11  .000000000000D+00
     .570000000000D+02  .792187500000D+02  .428982154543D-08 -.191487203603D+01
     .384263694286D-05  .827506114729D-02  .107157975435D-04  .515365585518D+04
     .718400000000D+04  .372529029846D-07 -.309841337422D+01 -.149011611938D-06
     .960618968607D+00  .174218750000D+03  .207261100091D+00 -.774639409698D-08
    -.475019786481D-10  .100000000000D+01  .224800000000D+04  .000000000000D+00
     .240000000000D+01  .000000000000D+00  .512227416039D-08  .570000000000D+02
     .000000000000D+00  .400000000000D+01
2  23  2  5  2  0  0.0 -.622944906354D-03  .250111042988D-11  .000000000000D+00
     .106000000000D+03  .928750000000D+02  .467662337156D-08  .114498090814D+01
     .440515577793D-05  .200763223693D-01  .354461371899D-05  .515368339920D+04
     .720000000000D+04 -.819563865662D-07 -.210665129499D+01 -.471249222755D-06
     .966965930858D+00  .314750000000D+03 -.133099770060D+01 -.841070748258D-08
     .251439044874D-09  .100000000000D+01  .224800000000D+04  .000000000000D+00
     .240000000000D+01  .000000000000D+00 -.176951289177D-07  .106000000000D+03
     .000000000000D+00  .400000000000D+01
1  23  2  5  2  0  0.0  .216178130358D-03 -.443378667114D-11  .000000000000D+00
     .900000000000D+01  .887812500000D+02  .408195574413D-08  .213347348981D+01
     .437162816525D-05  .122886579484D-01  .224076211452D-05  .515365129089D+04
     .720000000000D+04 -.130385160446D-06 -.201006242577D+01 -.294297933578D-06
     .989221506944D+00  .351187500000D+03  .936965743996D+00 -.797997525514D-08
     .260010830495D-09  .100000000000D+01  .224800000000D+04  .000000000000D+00
     .240000000000D+01  .000000000000D+00  .465661287308D-08  .265000000000D+03
     .000000000000D+00  .400000000000D+01
5  23  2  5  2  0  0.0 -.114673282951D-03 -.147792889038D-11  .000000000000D+00
     .200000000000D+02 -.103343750000D+03  .448018661776D-08 -.157435386415D+01
    -.530853867531D-05  .578366126865D-02  .277347862720D-05  .515360965157D+04
     .720000000000D+04  .178813934326D-06 -.102307705348D+01  .745058059692D-07
     .964324506455D+00  .327281250000D+03  .113142041533D+01 -.821998525252D-08
    -.346800159904D-09  .100000000000D+01  .224800000000D+04  .000000000000D+00
     .240000000000D+01  .000000000000D+00 -.111758708954D-07  .200000000000D+02
     .000000000000D+00  .400000000000D+01
3  23  2  5  2  0  0.0 -.366616994143D-03  .363797880709D-11  .000000000000D+00
     .510000000000D+02 -.112281250000D+03  .421696136765D-08  .987348764068D+00
    -.587105751038D-05  .446184654720D-02  .369735062122D-05  .515373226547D+04
     .720000000000D+04 -.633299350739D-07 -.977968157374D+00  .689178705215D-07
     .977326985249D+00  .316062500000D+03  .101769494276D+01 -.818069790176D-08
    -.383230248792D-09  .100000000000D+01  .224800000000D+04  .000000000000D+00
     .340000000000D+01  .000000000000D+00  .186264514923D-08  .510000000000D+02
     .000000000000D+00  .400000000000D+01
4  23  2  5  2  0  0.0 -.342964194715D-04  .807176547823D-11  .000000000000D+00
     .139000000000D+03 -.603125000000D+02  .407088385437D-08 -.234975419962D+01
    -.320188701153D-05  .229605205823D-02  .117942690849D-04  .515372203255D+04
     .720000000000D+04 -.391155481339D-07  .102993501156D+00  .260770320892D-07
     .962816046273D+00  .154062500000D+03 -.305732996053D+01 -.764424698500D-08
     .345371528968D-09  .100000000000D+01  .224800000000D+04  .000000000000D+00
     .240000000000D+01  .000000000000D+00 -.465661287308D-08  .395000000000D+03
     .000000000000D+00  .400000000000D+01
15 23  2  6  0  0  0.0  .109351240098D-04  .329691829393D-11  .000000000000D+00
     .290000000000D+02 -.955312500000D+02  .469412410054D-08  .237396535193D+01
    -.503472983837D-05  .147453375394D-01  .101178884506D-04  .515368202782D+04
     .864000000000D+05  .154599547386D-06 -.687961789170D-01 -.212341547012D-06
     .932249898830D+00  .168687500000D+03  .117661783408D+01 -.787675666996D-08
     .646455498895D-10  .100000000000D+01  .224800000000D+04  .000000000000D+00
     .240000000000D+01  .000000000000D+00 -.107102096081D-07  .290000000000D+02
     .792000000000D+05  .400000000000D+01
32 23  2  6  0  0  0.0 -.387230888009D-03 -.118234311230D-10  .000000000000D+00
     .980000000000D+02 -.821562500000D+02  .404659712844D-08 -.224413002066D+01
    -.424683094025D-05  .656486325897D-02  .114850699902D-04  .515371348381D+04
     .864000000000D+05 -.558793544769D-08  .592999300115D-01 -.109896063805D-06
     .959735973198D+00  .156937500000D+03 -.226251287515D+01 -.759817363729D-08
     .217509060125D-09  .100000000000D+01  .224800000000D+04  .000000000000D+00
     .240000000000D+01  .000000000000D+00  .465661287308D-09  .980000000000D+02
     .792000000000D+05  .400000000000D+01
30 23  2  6  0  0  0.0 -.531219411641D-03  .113686837722D-11  .000000000000D+00
     .680000000000D+02  .294062500000D+02  .532807907874D-08  .378012333617D+00
     .161491334438D-05  .609089492355D-02  .653788447380D-05  .515363698006D+04
     .864000000000D+05  .316649675369D-07  .112580130895D+01  .100582838058D-06
     .935322560762D+00  .239468750000D+03 -.265637303251D+01 -.843177978890D-08
     .525736184737D-09  .100000000000D+01  .224800000000D+04  .000000000000D+00
     .240000000000D+01  .000000000000D+00  .372529029846D-08  .680000000000D+02
     .792000000000D+05  .400000000000D+01
27 23  2  6  0  0  0.0  .109300483018D-03 -.909494701773D-11  .000000000000D+00
     .630000000000D+02  .728750000000D+02  .397195116199D-08 -.292438056236D+01
     .354647636414D-05  .112722921185D-01  .122003257275D-04  .515366996193D+04
     .864000000000D+05 -.167638063431D-07 -.307663766891D+01 -.236555933952D-06
     .969457782128D+00  .147781250000D+03  .694990140626D+00 -.750209820679D-08
    -.226438003480D-09  .100000000000D+01  .224800000000D+04  .000000000000D+00
     .240000000000D+01  .000000000000D+00  .186264514923D-08  .630000000000D+02
     .792000000000D+05  .400000000000D+01
21 23  2  6  0  0  0.0  .153833534569D-03  .113686837722D-12  .000000000000D+00
     .660000000000D+02  .145218750000D+03  .448840124564D-08 -.298851101569D+01
     .754371285439D-05  .248699208023D-01  .384077429771D-05  .515366045761D+04
     .864000000000D+05 -.558793544769D-07 -.211130733313D+01  .355765223503D-06
     .961320922052D+00  .302031250000D+03 -.822299291792D+00 -.788175687824D-08
     .338585532018D-09  .100000000000D+01  .224800000000D+04  .000000000000D+00
     .240000000000D+01  .000000000000D+00 -.102445483208D-07  .660000000000D+02
     .792000000000D+05  .400000000000D+01
20 23  2  6  0  0  0.0  .452514272183D-03 -.238742359215D-11  .000000000000D+00
     .630000000000D+02 -.564687500000D+02  .500485132929D-08  .201890252374D+01
    -.294484198093D-05  .447938824072D-02  .139512121677D-05  .515374118042D+04
     .864000000000D+05 -.298023223877D-07 -.114425958858D+01  .409781932831D-07
     .946693366562D+00  .347750000000D+03 -.292405019303D+01 -.854821321025D-08
    -.294655130712D-09  .100000000000D+01  .224800000000D+04  .000000000000D+00
     .240000000000D+01  .000000000000D+00 -.838190317154D-08  .630000000000D+02
     .792000000000D+05  .400000000000D+01
26 23  2  6  0  0  0.0  .241223722696D-03  .341060513165D-12  .000000000000D+00
     .600000000000D+02 -.281562500000D+02  .548094258897D-08 -.115381214374D+01
    -.149942934513D-05  .783164706081D-02  .537186861038D-05  .515362612152D+04
     .864000000000D+05  .147148966789D-06  .209824997297D+01 -.596046447754D-07
     .934552016940D+00  .257000000000D+03  .445131298900D+00 -.844820904467D-08
    -.298226708054D-09  .100000000000D+01  .224800000000D+04  .000000000000D+00
     .240000000000D+01  .000000000000D+00  .698491930962D-08  .600000000000D+02
     .792000000000D+05  .400000000000D+01
19 23  2  6  0  0  0.0  .273844227195D-03  .511590769747D-11  .000000000000D+00
     .700000000000D+02  .732812500000D+02  .397730852801D-08 -.838034813159D+00
     .388734042645D-05  .908465916291D-02  .115390866995D-04  .515360782242D+04
     .864000000000D+05 -.119209289551D-06 -.296717816494D+01 -.521540641785D-07
     .975089848498D+00  .167093750000D+03  .223770182549D+01 -.774210820417D-08
    -.764317551180D-10  .100000000000D+01  .224800000000D+04  .000000000000D+00
     .240000000000D+01  .000000000000D+00 -.153668224812D-07  .700000000000D+02
     .792000000000D+05  .400000000000D+01
17 23  2  6  0  0  0.0  .698177609593D-03  .238742359215D-11  .000000000000D+00
     .360000000000D+02  .746875000000D+02  .382730227965D-08 -.297176893061D+01
     .402517616749D-05  .136859093327D-01  .121630728245D-04  .515371805000D+04
     .864000000000D+05  .178813934326D-06 -.301177385037D+01  .121071934700D-06
     .976096676996D+00  .149406250000D+03 -.142260488902D+01 -.735923511311D-08
    -.189650756858D-09  .100000000000D+01  .224800000000D+04  .000000000000D+00
     .240000000000D+01  .000000000000D+00 -.111758708954D-07  .360000000000D+02
     .792000000000D+05  .400000000000D+01
16 23  2  6  0  0  0.0 -.521288719028D-03  .147792889038D-11  .000000000000D+00
     .850000000000D+02 -.300000000000D+02  .465697969618D-08 -.211627998040D+01
    -.183656811714D-05  .133741078898D-01  .667572021484D-05  .515377589607D+04
     .864000000000D+05  .189989805222D-06  .225126319458D+01 -.782310962677D-07
     .966006446777D+00  .248562500000D+03  .761040229203D+00 -.787782814316D-08
    -.309298597814D-09  .100000000000D+01  .224800000000D+04  .000000000000D+00
     .240000000000D+01  .000000000000D+00 -.102445483208D-07  .850000000000D+02
     .792000000000D+05  .400000000000D+01
